#dP2021  3  9  0  0  0.00000000      96 __u+U ITR00 EXT  IAC
## 2148 172800.00000000   900.00000000 59282 0.0000000000000
+  116   C06C07C08C09C10C11C12C13C14C16C19C20C21C22C23C24C25
+        C26C27C28C29C30C32C33C34C35C36C37C38C39C40C41C42C43
+        C44C45C46E01E02E03E04E05E07E08E09E11E12E13E14E15E18
+        E19E21E24E25E26E27E30E31E33G01G02G03G04G05G06G07G08
+        G09G10G11G12G13G14G15G16G17G18G19G20G21G22G23G24G25
+        G26G27G28G29G30G31G32J01J02J03R01R02R03R04R05R07R08
+        R09R11R12R13R14R15R16R17R18R19R20R21R22R24  0  0  0
++         9  9  9  9 10  9 11 10  9  8  9  8  8  9 10  8  9
++         8 10  9  9  9  9  9  9 10  8 10  9  9 11  9  9  8
++         7 11  9  8  8  9  7  7  9  8  7  8  9  8  8  8  8
++         7  8  7  8  8  9  7  7  9  8  7  7  7  7  7  7  8
++        10  7  8  8  9  7  9  9  8  9  8  9  8  8  8  7  7
++         8  7  7  6  8  7  9 13 10 10  7  8  9  9  9  8  9
++        10  9  7  7  8  8  8  8  9 10  9  9  8  8  0  0  0
%c M  cc GPS ccc cccc cccc cccc cccc ccccc ccccc ccccc ccccc
%c cc cc ccc ccc cccc cccc cccc cccc ccccc ccccc ccccc ccccc
%f  0.0000000  0.000000000  0.00000000000  0.000000000000000
%f  0.0000000  0.000000000  0.00000000000  0.000000000000000
%i    0    0    0    0      0      0      0      0         0
%i    0    0    0    0      0      0      0      0         0
/* IAC                                ULTRA-RAPID PREDICTION
/* S/V CLOCKS ARE ALIGNED TO GNSS TIME                      
/* G:C1WC2W R:C1PC2P E:C1XC5X C:C2IC6I J:C1CC2S             
/* PCV:IGS14_2134 OL/AL:FES2004  NONE     YN ORB:CoN CLK:CoN
*  2021 03 09  2 45  0.00000000
PC06 -23347.046673  28694.809583  20211.845548    159.281267
PC07 -12248.124633  36762.828325  17463.317531      1.543191
PC08 -10507.379605  18512.630564 -36275.672823   -903.070485
PC09  -9425.267609  28144.277696  30055.541427    681.909531
PC10  -2059.976706  42006.232552   5597.493232    -74.653589
PC11 -23352.203429  13341.307362  -7448.621760   -879.951795
PC12 -25923.812614   2325.769347  10119.649406    850.874237
PC13   4675.607148  26416.056890 -32338.707500    172.381343
PC14 -13952.033492  18509.750057 -15550.018771    164.855553
PC16 -19902.411460  29064.072988  23119.516501   -726.305908
PC19   9354.734031 -25174.974946   7581.096220    754.730882
PC20  15977.965063 -10318.441636  20430.245158   -926.151527
PC21 -13342.332994 -11419.091534 -21661.568026   -875.032424
PC22  -2875.082277 -25840.007201 -10095.602744   -908.696430
PC23  11641.764980  21794.365477  12961.329646   -876.788192
PC24 -21046.212564   -490.527930  18319.358737   -777.895425
PC25  -5703.227728  15773.326049  22291.887223   -951.481376
PC26 -23448.117427 -14473.953914   4523.725523    938.106045
PC27  21355.987744   5029.040396 -17274.390865    495.520222
PC28   3527.860861  15531.147815 -22910.631815   -100.698167
PC29  15630.477205 -17514.850058  15088.962731    362.422274
PC30  26334.454924  -9061.770245  -1994.150147    450.879472
PC32  13453.722509  11348.562216  21675.905559   -908.288875
PC33  -9240.622087  25219.933856  -7590.776791   -949.515482
PC34 -26215.012059   9431.095205   1306.181324   -723.291433
PC35  -3709.538453 -15593.766543  22842.285295   -383.549820
PC36   6367.830545 -15429.488690 -22345.499900   -744.433580
PC37  22867.665167  15531.947281  -3718.687474   -873.612890
PC38  -8191.199078  22446.578019 -34705.098335    134.640904
PC39 -18407.373618  30336.580988  22686.060850     29.195250
PC40  -7015.776945  40933.315543   7748.978253    139.026469
PC41   2838.581448  25947.912330   9909.617631   -931.226372
PC42 -16072.878832   9631.099713 -20637.395383   -924.371051
PC43 -16080.580337  17416.274119 -14707.541264   -631.001987
PC44 -21369.229300  -4561.727368  17330.373003     76.245642
PC45 -11816.644370 -21727.968916 -12949.349390    381.726972
PC46  20502.758997   -346.400867 -18909.891728    371.613230
PE01   2644.689221 -23649.192499 -17614.756820  -1061.581642
PE02  -2566.282388  23693.882307  17535.510004    203.680241
PE03 -13417.304350  25655.397411   6188.979442   -406.801806
PE04  -2888.496515 -20882.303317 -20773.578310   -725.016868
PE05 -22089.463192  15430.344287 -12250.226392   -298.573817
PE07  17795.175700   3695.778482  23368.481252   -510.344559
PE08   3166.606472  20609.448985  21015.666082   6036.019261
PE09 -17792.537644  -3337.388177 -23417.213843   5741.049227
PE11 -27862.985229  -7296.014353   6777.638303   6229.466184
PE12 -12307.227932 -15663.340654  21892.190750   5319.635244
PE13  27746.592672   7414.211985  -7179.579170    413.260634
PE14  17930.669084  10713.135513 -23732.175006  -1355.306010
PE15  12441.022749  15534.760265 -21901.793662    825.622362
PE18 -21182.649103   1910.284141  13768.879434  -1481.934235
PE19  14986.183296 -25201.322814  -4074.520509    222.140460
PE21  15006.121242  -6953.223045 -24554.127633   -652.552752
PE24 -19006.063425 -15115.906340  16929.431428   -782.729727
PE25 -15101.745360   6732.087146  24552.752364   -528.029907
PE26  26356.818876  -5456.538706  12330.567020   2063.642038
PE27  19115.887437  14338.787890 -17459.971192     14.418490
PE30  11337.549705  27322.850410    639.098345   3122.122934
PE31 -11970.109646 -27077.216963    150.760663   -478.988811
PE33  10183.133073 -14503.893807  23721.300401   -466.352719
PG01  20054.961688  14270.476930 -10663.328880    745.489381
PG02   2614.045094 -15302.258718  22211.244825   -584.267601
PG03  12859.496449  19633.262460  12457.870023   -102.887787
PG04  10837.938304  10746.448251  21744.589512   -185.030557
PG05  -3435.492380 -25898.653427   4062.142228    -35.702207
PG06  16166.899954  -8330.384224  19441.889538     -0.042864
PG07  25805.690903   6665.521191  -2716.000594     83.704845
PG08   4057.693320  15820.420488 -20878.987936    -13.020024
PG09  19321.089522   -321.791236  18170.789936   -329.455990
PG10 -12932.972980   9156.256574 -21158.576574    -77.059970
PG11  14785.143511  12141.817000 -18737.895654     -4.134384
PG12  -9436.326994 -23049.451763   9198.007078    -11.306469
PG13   6868.113818 -19060.294995 -17243.115501    105.640372
PG14  13956.431002  -7545.835424 -21310.747755     99.769755
PG15  -6688.248749 -15686.968059 -20646.394642   -164.412766
PG16  -1114.229965  25538.509915   6001.298746   -291.164207
PG17  22146.947577 -13845.016579  -4380.766257    406.535661
PG18 -25433.894948  -4171.884196  -6547.908566    349.998306
PG19  20119.216973 -16955.580483   2939.632071    -28.834121
PG20 -17087.246072  -3736.138318 -20107.992993    524.337880
PG21  14517.008144  15132.947862 -15832.795645    101.619354
PG22  10582.163338  24182.581784   3901.106502   -664.409299
PG23 -15820.893805  -3013.835091 -21147.556837    117.897111
PG24 -16218.663852 -15412.881340 -14844.130710      1.330270
PG25 -15460.694057 -11004.991309  18435.093101     95.125228
PG26  -6280.179933  20579.020350  15345.051712     55.407374
PG27  -8195.755331  20558.518871 -14566.231516    -90.437794
PG28  12705.582799 -10514.287680 -20307.201237    604.926348
PG29 -19181.704226   -551.222614  18337.938082   -308.427671
PG30  22447.041900  -2914.079371 -14027.106031   -395.677287
PG31 -14269.552604   9980.790880  20100.359661   -104.475123
PG32 -21022.915107  15639.859531  -3639.909792     20.787729
PJ01 -23427.194147  32396.626566  -8780.649947   -353.471997
PJ02 -25434.810150  22261.601211  30096.890406      3.034867
PJ03 -35500.355834  20203.347770  -5858.371947     -1.507256
PR01  10782.323328   2663.678815  22966.778449     76.113306
PR02  13073.688119 -17786.878930  12877.953518    469.995802
PR03   6713.168312 -24269.241545  -4201.458649     32.068344
PR04  -3188.057619 -16918.809501 -18795.701256     77.079011
PR05 -11325.623116   -205.117132 -22840.055727     67.830217
PR07  -6315.710204  24189.702509   4985.879953    -42.533326
PR08   3380.326948  16875.163171  18875.456556    -57.801679
PR09  -9806.240935   5836.807972  22822.137558    -18.062287
PR11  15745.278128  19921.049496   2481.783252      2.479180
PR12  17995.968059  10355.387180 -14779.798699    211.027761
PR13  10013.365973  -5151.426716 -22908.875596    -51.751746
PR14  -4255.229416 -18070.557850 -17483.196979     61.807350
PR15 -15622.309264 -20064.861227  -2033.172259    105.025748
PR16 -18178.454390  -9235.691627  15387.309219    -12.241969
PR17   7547.433558 -11265.923794  21609.098415    406.371137
PR18 -10654.308332  -8106.173204  21716.429828     69.148226
PR19 -22997.789783  -1627.184411  10914.280182   -134.971116
PR20 -22744.332722   7206.092698  -8944.664635    -44.807352
PR21  -6406.001464  11143.551735 -22032.963024   -193.008473
PR22  11874.990344   7693.589867 -21261.042572   -101.637110
PR24  22262.805338  -7980.609301   9569.579662     34.294692
EOF
